{"fetched_at":"2026-03-30T06:02:59Z","count":15439,"tles":[{"name":"STARLINK-3653","line1":"1 52000U 22025AW  26087.82677758  .00000768  00000+0  66365-4 0  9991","line2":"2 52000  53.2174 293.1222 0001374  92.4845 267.6305 15.08842037223812","category":"Starlink"}]}