{
  "norad_id": 52000,
  "name": "STARLINK-3653",
  "history": [
    {
      "epoch": "2026-03-28T19:50:33.582912Z",
      "apogee_km": 540.688232016907,
      "perigee_km": 538.7860933371367,
      "latitude_deg": 3.743764141638042e-05,
      "longitude_deg": 169.24065396949004,
      "height_km": 540.6740727910783,
      "semi_major_axis_km": 6917.874162677022,
      "eccentricity": 0.00013748,
      "inclination_deg": 53.2174,
      "raan_deg": 293.1222,
      "arg_perigee_deg": 92.4845,
      "mean_anomaly_deg": 267.6305,
      "mean_motion_rev_day": 15.08842037
    }
  ]
}